{
    "links": {
        "self": "http://www.neowsapp.com/rest/v1/neo/3795128?api_key=iIulBulltgU6a56xZRHN4H3l9WmuAYTsLGpBGhQ2"
    },
    "id": "3795128",
    "neo_reference_id": "3795128",
    "name": "(2017 YE7)",
    "designation": "2017 YE7",
    "nasa_jpl_url": "http://ssd.jpl.nasa.gov/sbdb.cgi?sstr=3795128",
    "absolute_magnitude_h": 28.5,
    "estimated_diameter": {
        "kilometers": {
            "estimated_diameter_min": 0.0053034072,
            "estimated_diameter_max": 0.0118587791
        },
        "meters": {
            "estimated_diameter_min": 5.3034072332,
            "estimated_diameter_max": 11.8587790858
        },
        "miles": {
            "estimated_diameter_min": 0.0032953835,
            "estimated_diameter_max": 0.0073687014
        },
        "feet": {
            "estimated_diameter_min": 17.3996305869,
            "estimated_diameter_max": 38.9067567758
        }
    },
    "is_potentially_hazardous_asteroid": false,
    "close_approach_data": [
        {
            "close_approach_date": "2015-05-16",
            "close_approach_date_full": "2015-May-16 11:42",
            "epoch_date_close_approach": 1431776520000,
            "relative_velocity": {
                "kilometers_per_second": "19.8657897021",
                "kilometers_per_hour": "71516.8429274812",
                "miles_per_hour": "44437.7849845785"
            },
            "miss_distance": {
                "astronomical": "0.0499693007",
                "lunar": "19.4380579723",
                "kilometers": "7475300.950109509",
                "miles": "4644936.6218248642"
            },
            "orbiting_body": "Mars"
        },
        {
            "close_approach_date": "2017-12-30",
            "close_approach_date_full": "2017-Dec-30 14:08",
            "epoch_date_close_approach": 1514642880000,
            "relative_velocity": {
                "kilometers_per_second": "20.7968709968",
                "kilometers_per_hour": "74868.7355883155",
                "miles_per_hour": "46520.5207326397"
            },
            "miss_distance": {
                "astronomical": "0.0034950415",
                "lunar": "1.3595711435",
                "kilometers": "522850.763961605",
                "miles": "324884.399635949"
            },
            "orbiting_body": "Moon"
        },
        {
            "close_approach_date": "2017-12-30",
            "close_approach_date_full": "2017-Dec-30 17:47",
            "epoch_date_close_approach": 1514656020000,
            "relative_velocity": {
                "kilometers_per_second": "20.1937094549",
                "kilometers_per_hour": "72697.354037473",
                "miles_per_hour": "45171.308679562"
            },
            "miss_distance": {
                "astronomical": "0.002058116",
                "lunar": "0.800607124",
                "kilometers": "307889.76981292",
                "miles": "191313.831621496"
            },
            "orbiting_body": "Earth"
        }
    ],
    "orbital_data": {
        "orbit_id": "1",
        "orbit_determination_date": "2017-12-30 11:45:01",
        "first_observation_date": "2017-12-28",
        "last_observation_date": "2017-12-30",
        "data_arc_in_days": 2,
        "observations_used": 23,
        "orbit_uncertainty": "8",
        "minimum_orbit_intersection": "5.4366E-5",
        "jupiter_tisserand_invariant": "3.706",
        "epoch_osculation": "2458116.5",
        "eccentricity": ".6731591230041784",
        "semi_major_axis": "1.839083453037727",
        "inclination": "4.330626504236359",
        "ascending_node_longitude": "279.0325949083175",
        "orbital_period": "910.9626734793574",
        "perihelion_distance": ".6010876486593547",
        "perihelion_argument": "268.1323326803806",
        "aphelion_distance": "3.0770792574161",
        "perihelion_time": "2458164.803117115448",
        "mean_anomaly": "340.9112681915443",
        "mean_motion": ".3951863347210545",
        "equinox": "J2000",
        "orbit_class": {
            "orbit_class_type": "APO",
            "orbit_class_description": "Near-Earth asteroid orbits which cross the Earth’s orbit similar to that of 1862 Apollo",
            "orbit_class_range": "a (semi-major axis) > 1.0 AU; q (perihelion) < 1.017 AU"
        }
    },
    "is_sentry_object": false
}